#aV2021  6  3  0  0  0.00000000     288 DD+AD WGS84 FIT  NGA
## 2160 345600.00000000   300.00000000 59368 0.0000000000000
+   31     1  2  3  4  5  6  7  8  9 10 12 13 14 15 16 17 18
+         19 20 21 22 23 24 25 26 27 28 29 30 31 32  0  0  0
+          0  0  0  0  0  0  0  0  0  0  0  0  0  0  0  0  0
+          0  0  0  0  0  0  0  0  0  0  0  0  0  0  0  0  0
+          0  0  0  0  0  0  0  0  0  0  0  0  0  0  0  0  0
++         2  2  2  2  2  2  2  2  2  2  2  2  2  2  2  2  2
++         2  2  2  2  2  2  2  2  2  2  2  2  2  2  0  0  0
++         0  0  0  0  0  0  0  0  0  0  0  0  0  0  0  0  0
++         0  0  0  0  0  0  0  0  0  0  0  0  0  0  0  0  0
++         0  0  0  0  0  0  0  0  0  0  0  0  0  0  0  0  0
%c cc cc ccc ccc cccc cccc cccc cccc ccccc ccccc ccccc ccccc
%c cc cc ccc ccc cccc cccc cccc cccc ccccc ccccc ccccc ccccc
%f  0.0000000  0.000000000  0.00000000000  0.000000000000000
%f  0.0000000  0.000000000  0.00000000000  0.000000000000000
%i    0    0    0    0      0      0      0      0         0
%i    0    0    0    0      0      0      0      0         0
/*      NGA, ST. LOUIS,MO.                                  
/*   EPHEMERIS COMPUTED FROM 2 DAYS OF DATA                 
/*   EPOCHA v6 SMOOTHER                                     
/*   G2139 IERS2010 SATIGS SATAPC                           
*  2021  6  3  8  0  0.00000000
P  1 -22407.712267 -14592.475730  -1045.376466    670.079958                    
V  1   1764.379550   -977.706951 -32008.675137     -0.116244                    
P  2   4615.799799  17769.372571  19828.094947   -609.419983                    
V  2 -21740.904510  -9731.786863  14312.398499     -0.030210                    
P  3 -12487.544790 -14259.362007  18565.669264   -181.527768                    
V  3   1721.684079 -23662.805824 -16826.900391     -0.104859                    
P  4 -18314.593892  -5219.912334  18548.431983   -198.638563                    
V  4  20276.403491 -11996.197926  16594.293730     -0.013005                    
P  5   6086.730731  24550.416026  -7954.033524    -43.827519                    
V  5  -2674.409027   9998.789186  29567.363876     -0.011313                    
P  6  -7656.170965  12583.999201  22159.243186     22.540891                    
V  6 -23921.532967 -14411.828274    -23.524100      0.042880                    
P  7 -23504.904648  -4687.421568 -11612.049282    168.358573                    
V  7 -11678.630101  -9902.827428  26327.669909      0.100906                    
P  8  -9756.240630 -11710.033223 -21780.739067    -23.656263                    
V  8  23832.401062 -13899.046235  -2905.816968     -0.014174                    
P  9 -23783.858484   4931.754797  10717.249997   -349.150567                    
V  9  10535.331358  -9155.135640  27418.970124     -0.020648                    
P 10  11757.686107 -16637.298188 -16776.865893   -134.800566                    
V 10   1506.178620  21638.182604 -20522.235377     -0.076403                    
P 12  10531.785339  16678.936671  17600.546511    -49.818128                    
V 12  -3431.169122  22553.252494 -18910.370345     -0.052089                    
P 13    106.143053  15824.110803 -21443.354016    140.076109                    
V 13 -25273.369948   9287.843213   6903.753034      0.048184                    
P 14 -12809.580827  16144.573572 -16746.156496     75.964110                    
V 14   -578.700871 -21345.227087 -20178.547345     -0.065575                    
P 15  11729.212213  11269.896988 -21387.431548   -144.987689                    
V 15 -21326.172073  15592.102645  -3186.852419      0.026195                    
P 16     86.161202 -26045.445803  -3980.100574   -335.312759                    
V 16   3229.910803  -4486.849156  31806.054515     -0.060000                    
P 17 -22325.410875  13854.872116   4306.713670    452.554834                    
V 17  -5330.038990    261.327498 -31601.153811      0.059854                    
P 18  21928.499403   1678.731452 -14952.718664    348.353438                    
V 18  15022.531274  11651.913958  23289.304802     -0.014903                    
P 19 -17474.011592  15915.854000  11703.726061      8.435165                    
V 19 -14899.577677   4108.760871 -27290.558724      0.049792                    
P 20  10007.122370  22826.384111  -9552.991356    521.547790                    
V 20  -1373.119534  12344.719556  27828.312144     -0.003882                    
P 21 -19770.603096 -16040.704915  -7689.607918    122.523727                    
V 21  10584.791071   2548.334582 -29317.490851      0.025385                    
P 22 -10235.368303 -21915.522245  11388.910802   -598.078361                    
V 22   1705.139633 -14347.587645 -26319.493182      0.097024                    
P 23  14855.231991  -4893.886817 -21480.356930    100.792037                    
V 23    747.442746  27217.728629  -5739.502456     -0.038327                    
P 24  20793.541588  15756.425593  -6246.826037    113.515820                    
V 24  -8144.523809   -665.610051 -29587.157211      0.195945                    
P 25  14925.482083   3530.702679  21441.127951    149.017182                    
V 25   -666.766857  27822.794612  -3805.129830      0.069499                    
P 26   4325.468492 -25120.832137   6881.764856     93.583056                    
V 26   3710.909787   8808.456371  29836.701735      0.048667                    
P 27   2112.838506 -16966.456946 -20400.533246   -140.909929                    
V 27  22863.137855 -11495.875586  12391.713575     -0.063464                    
P 28 -10283.693145  21412.588902 -11523.801748    560.883664                    
V 28   -369.721081 -15536.458708 -27068.833350     -0.062665                    
P 29  23874.442824  -2749.389309  11314.425987   -357.878340                    
V 29 -12319.300498   7649.093033  27680.168243     -0.063606                    
P 30 -16306.120202   6881.918419 -19806.721373   -434.276595                    
V 30 -20691.851100 -14624.405208  11679.364295     -0.047881                    
P 31   5409.645586 -14508.122483  21456.260456   -120.929222                    
V 31  23527.056805  14265.488686   4152.990953     -0.021825                    
P 32  20200.837717 -16115.510358   5844.491047     19.693802                    
V 32   7827.721028  -1011.766357 -30606.576598     -0.011117                    
EOF
